# From MPC106342
C/1995 O1 (Hale-Bopp),e,89.2563,282.7987,130.4159,177.1653,0.0004180,0.99497120,0.0000,03/29.6582/1997,2000,g -2.0,4.0
# From NK 1615
P/1996 R2 (Lagerkvist),e,2.6009,40.0095,333.3791,3.774663,0.1343962,0.31453991,169.2453,07/26.0/2022,2000,g 11.5,4.0
# From MPC 75703
P/1998 VS24 (LINEAR),e,5.0266,159.0407,244.6103,4.525866,0.1023650,0.24301225,168.7383,07/26.0/2022,2000,g 13.0,2.0
# From NK 731
P/1999 RO28 (LONEOS),e,7.5662,137.8777,231.2863,3.426543,0.1553889,0.67250632,174.8410,07/26.0/2022,2000,g 20.0,2.0
# From MPC 75704
P/1999 XN120 (Catalina),e,5.0298,285.2963,161.7051,4.179023,0.1153698,0.21033827,216.1946,07/26.0/2022,2000,g 13.5,2.0
# From NK 744
P/2000 R2 (LINEAR),e,11.6872,160.2854,176.5818,3.467501,0.1526438,0.53149724,173.1266,07/26.0/2022,2000,g 18.0,4.0
# From MPC 43019
P/2001 H5 (NEAT),e,8.3671,328.6846,224.7614,6.096279,0.0654797,0.59819979,162.1400,07/26.0/2022,2000,g 12.0,4.0
# From MPC 75704
P/2001 Q6 (NEAT),e,56.9115,22.1837,42.9343,7.957675,0.0439061,0.82328911,334.4274,07/26.0/2022,2000,g 13.5,4.0
# From MPC 47727
P/2002 EJ57 (LINEAR),e,4.9771,330.3136,167.3001,6.464629,0.0599637,0.59232038,89.9228,07/26.0/2022,2000,g 12.5,4.0
# From MPC109588
P/2002 T6 (NEAT-LINEAR),e,10.8493,206.0879,219.5905,7.720172,0.0459477,0.56211162,326.6761,07/26.0/2022,2000,g 10.5,4.0
# From MPC 75007
C/2002 VQ94 (LINEAR),e,70.6803,35.1290,100.0099,184.2967,0.0003939,0.96303743,2.3722,07/26.0/2022,2000,g  9.5,2.0
# From MPC 50354
P/2003 F2 (NEAT),e,11.6099,358.9996,192.2559,6.502453,0.0594413,0.54150552,58.6500,07/26.0/2022,2000,g 16.5,2.0
# From MPC 50139
P/2003 QX29 (NEAT),e,11.3925,264.5236,37.6394,8.017778,0.0434133,0.47267144,311.9268,07/26.0/2022,2000,g  8.5,4.0
# From MPC105235
P/2003 T12 (SOHO),e,11.0226,174.5865,219.7456,2.585561,0.2370674,0.77008297,191.9850,07/26.0/2022,2000,g 17.0,4.0
# From MPC 82312
P/2004 A1 (LONEOS),e,10.5517,124.8571,21.1195,7.969524,0.0438082,0.30986925,288.2668,07/26.0/2022,2000,g  6.5,4.0
# From MPC 54558
P/2004 DO29 (Spacewatch-LINEAR),e,14.5317,147.3749,40.5382,7.293479,0.0500382,0.44118869,326.0271,07/26.0/2022,2000,g 13.5,2.0
# From MPC 54823
P/2004 FY140 (LINEAR),e,2.1348,326.7767,242.1665,4.906296,0.0906929,0.16786292,232.6267,07/26.0/2022,2000,g 12.5,2.0
# From MPC 53304
P/2004 R3 (LINEAR-NEAT),e,12.7817,305.3383,37.7310,4.767102,0.0946940,0.25607741,29.1692,07/26.0/2022,2000,g 14.5,4.0
# From MPC 55521
P/2004 V3 (Siding Spring),e,50.4438,356.1303,322.4648,7.131872,0.0517486,0.44603047,334.9064,07/26.0/2022,2000,g 11.5,4.0
# From MPC 75705
P/2004 V5 (LINEAR-Hill),e,19.3414,47.7869,87.5863,7.987594,0.0436596,0.44444474,279.4073,07/26.0/2022,2000,g  8.0,4.0
# From MPC 54164
P/2005 E1 (Tubbiolo),e,4.2634,335.5737,193.9152,7.048301,0.0526717,0.37544192,337.3744,07/26.0/2022,2000,g 10.0,4.0
# From MPC 79019
P/2005 J1 (McNaught),e,31.7429,268.8266,338.9394,3.571624,0.1460177,0.56910145,201.9942,07/26.0/2022,2000,g 16.5,4.0
# From MPC 74246
P/2005 L1 (McNaught),e,7.7346,138.2449,149.9105,3.985617,0.1238685,0.21142560,32.7307,07/26.0/2022,2000,g  9.5,4.0
# From MPC 75706
P/2005 S2 (Skiff),e,3.1356,161.2240,229.3555,8.007133,0.0434999,0.19839115,257.0764,07/26.0/2022,2000,g  7.5,4.0
# From MPC 75706
P/2005 SB216 (LONEOS),e,24.1105,1.1298,83.2621,7.143281,0.0516247,0.46446175,294.4395,07/26.0/2022,2000,g 12.0,2.0
# From MPC 73461
P/2005 T3 (Read),e,6.2236,27.6781,6.6733,7.587932,0.0471540,0.17524530,290.1796,07/26.0/2022,2000,g  9.0,4.0
# From MPC 73461
P/2005 T4 (SWAN),e,160.2617,25.8971,41.8111,9.359807,0.0344194,0.92973209,211.2044,07/26.0/2022,2000,g 15.0,4.0
# From MPC 75706
P/2005 T5 (Broughton),e,21.3764,57.0001,304.6695,7.282527,0.0501512,0.55265513,307.1322,07/26.0/2022,2000,g 11.0,4.0
# From MPC 75707
P/2006 HR30 (Siding Spring),e,31.8519,309.8512,117.3537,7.809480,0.0451618,0.84297047,257.5924,07/26.0/2022,2000,g 11.0,4.0
# From MPC 75707
P/2007 A2 (Christensen),e,26.4862,300.9127,186.7011,6.335585,0.0618051,0.55826997,352.2092,07/26.0/2022,2000,g 13.5,4.0
# From MPC 75707
P/2007 C2 (Catalina),e,8.6098,275.3279,180.1604,6.997495,0.0532464,0.47193231,288.8335,07/26.0/2022,2000,g 10.0,4.0
# From MPC 84315
C/2007 D1 (LINEAR),e,41.5015,171.2361,339.8331,1216,0.0000232,0.99277033,0.0000,06/07.0965/2007,2000,g  3.5,4.0
# From MPC 82314
P/2007 K2 (Gibbs),e,7.6275,188.6344,347.3652,7.273715,0.0502423,0.68301142,278.6832,07/26.0/2022,2000,g 14.0,4.0
# From MPC 60925
P/2007 Q2 (Gilmore),e,10.2027,172.1524,162.8396,5.656582,0.0732610,0.67007588,44.3970,07/26.0/2022,2000,g 16.0,4.0
# From MPC 73462
P/2007 S1 (Zhao),e,5.9617,141.3609,245.2334,3.822866,0.1318622,0.33957485,350.3772,07/26.0/2022,2000,g 13.0,4.0
# From MPC 61994
P/2007 T2 (Kowalski),e,9.7523,3.3777,359.6586,3.045915,0.1854076,0.78566224,271.0811,07/26.0/2022,2000,g 18.5,4.0
# From MPC 75709
P/2008 L2 (Hill),e,25.8682,218.0178,141.2589,6.027433,0.0666048,0.61342098,340.7473,07/26.0/2022,2000,g 12.5,4.0
# From MPC 64114
P/2008 O3 (Boattini),e,32.3232,47.5664,341.1545,8.216401,0.0418487,0.69626153,216.3208,07/26.0/2022,2000,g 13.0,4.0
# From MPC 75710
P/2008 Y3 (McNaught),e,38.7771,262.8467,238.0662,8.047839,0.0431703,0.44571045,214.5714,07/26.0/2022,2000,g  8.5,4.0
# From MPC 75710
P/2009 B1 (Boattini),e,22.2320,297.0775,128.8910,6.737432,0.0563589,0.63548317,279.0731,07/26.0/2022,2000,g 13.0,4.0
# From MPC 66466
C/2009 G1 (STEREO),e,108.5649,120.5305,175.4976,461.8687,0.0000993,0.99753293,0.0000,04/17.9583/2009,2000,g  9.0,4.0
# From MPC 75710
P/2009 O3 (Hill),e,16.2883,183.6855,154.4824,7.767092,0.0455320,0.68784177,218.8562,07/26.0/2022,2000,g 12.5,4.0
# From MPC 68902
P/2009 Q5 (McNaught),e,40.9876,160.2785,209.0890,7.430814,0.0486575,0.60976145,228.6624,07/26.0/2022,2000,g 10.0,4.0
# From MPC112389
P/2009 T2 (La Sagra),e,27.6003,215.8886,216.3288,7.719568,0.0459531,0.76624787,210.9956,07/26.0/2022,2000,g 14.0,4.0
# From MPC105235
P/2009 WX51 (Catalina),e,9.5942,31.5765,118.2518,3.082761,0.1820935,0.73952107,112.3542,07/26.0/2022,2000,g 19.0,2.0
# From MPC 74247
P/2009 Y2 (Kowalski),e,29.9566,262.0386,172.1303,6.550010,0.0587951,0.63663703,266.4828,07/26.0/2022,2000,g 13.0,4.0
# From MPC 75711
P/2010 A3 (Hill),e,14.8169,63.6550,42.2707,6.085317,0.0656567,0.73368440,296.9731,07/26.0/2022,2000,g 14.0,4.0
# From MPC 75008
P/2010 C1 (Scotti),e,9.1267,141.8786,3.4263,7.104595,0.0520469,0.26007215,241.9660,07/26.0/2022,2000,g  9.5,4.0
# From MPC 75008
P/2010 D2 (WISE),e,57.0947,319.8851,119.9446,6.720557,0.0565713,0.45136038,257.6003,07/26.0/2022,2000,g 16.0,4.0
# From MPC 75009
P/2010 E2 (Jarnac),e,15.3847,177.8198,8.3150,8.640272,0.0388073,0.71943719,174.8528,07/26.0/2022,2000,g 14.0,4.0
# From MPC 72851
P/2010 H2 (Vales),e,14.2781,64.1871,128.0190,3.832356,0.1313728,0.19647177,234.1118,07/26.0/2022,2000,g  6.0,4.0
# From MPC 70361
P/2010 H3 (SOHO),e,23.0714,77.0922,26.1506,3.036402,0.1862796,0.98536384,0.0000,02/07.8810/2021,2000,g 20.0,2.0
# From MPC 73463
P/2010 H4 (Scotti),e,2.3178,44.7274,179.3656,6.598615,0.0581467,0.26627339,257.6026,07/26.0/2022,2000,g 10.5,4.0
# From MPC 74637
P/2010 H5 (Scotti),e,14.0575,24.7944,174.8229,7.169589,0.0513408,0.15253652,231.5614,07/26.0/2022,2000,g 13.0,2.0
# From MPC 98558
P/2010 J3 (McMillan),e,13.2696,106.4575,157.5874,8.979122,0.0366314,0.72580061,159.4071,07/26.0/2022,2000,g 11.0,4.0
# From MPC 84315
P/2010 JC81 (WISE),e,38.8141,30.8659,12.4245,8.106400,0.0427034,0.77777163,175.5588,07/26.0/2022,2000,g  9.0,4.0
# From MPC 74248
P/2010 T2 (PANSTARRS),e,7.8867,58.5955,352.7727,5.562769,0.0751221,0.32297922,314.9304,07/26.0/2022,2000,g 11.5,4.0
# From MPC 98558
P/2010 TO20 (LINEAR-Grauer),e,2.4788,43.2854,267.3760,5.832911,0.0699642,0.05562063,351.3346,07/26.0/2022,2000,g  9.0,4.0
# From MPC 82316
P/2010 U1 (Boattini),e,8.2192,280.6841,86.2007,6.503115,0.0594322,0.24908161,270.7007,07/26.0/2022,2000,g  9.5,4.0
# From MPEC 2022-M21
C/2010 U3 (Boattini),e,55.5507,42.9977,88.0414,2427,0.0000082,0.99652114,0.0000,02/25.2361/2019,2000,g  1.0,4.0
# From MPC 79021
P/2010 UH55 (Spacewatch),e,8.0385,232.9096,225.1440,6.654625,0.0574141,0.56361326,237.1124,07/26.0/2022,2000,g 11.0,4.0
# From MPC 75009
P/2010 WK (LINEAR),e,11.4016,11.3344,40.9734,5.762387,0.0712526,0.69042686,308.2382,07/26.0/2022,2000,g 14.5,2.0
# From MPC 84021
P/2011 C2 (Gibbs),e,10.8869,12.1207,160.5786,7.412687,0.0488361,0.26906618,189.0561,07/26.0/2022,2000,g  9.0,4.0
# From MPC 79866
P/2011 FR143 (Lemmon),e,15.9755,190.9490,349.9637,6.862825,0.0548213,0.45054971,228.8475,07/26.0/2022,2000,g 14.0,2.0
# From MPC 82317
P/2011 JB15 (Spacewatch-Boattini),e,19.1472,153.5836,111.0659,7.364583,0.0493153,0.31626132,189.4492,07/26.0/2022,2000,g  9.0,4.0
# From MPC 87913
P/2011 N1 (ASH),e,35.7590,77.5797,330.3733,6.245470,0.0631475,0.54487412,234.7253,07/26.0/2022,2000,g 11.5,4.0
# From MPC 75714
P/2011 NO1 (Elenin),e,15.2448,295.8254,263.7165,5.530453,0.0757815,0.77455664,319.1487,07/26.0/2022,2000,g 15.0,4.0
# From MPEC 2022-ED3
P/2011 P1 (McNaught),e,5.6611,4.2316,349.1147,7.459866,0.0483735,0.32765141,211.7825,07/26.0/2022,2000,g  9.0,4.0
# From MPEC 2022-HC2
P/2011 S1 (Gibbs),e,2.6870,218.8351,192.4637,8.582935,0.0391968,0.20137016,113.7934,07/26.0/2022,2000,g  8.0,4.0
# From MPC 79022
P/2011 UA134 (Spacewatch-PANSTARRS),e,10.4405,40.4000,32.4004,5.609377,0.0741877,0.62968852,290.4756,07/26.0/2022,2000,g 17.5,4.0
# From MPC 77406
P/2011 V1 (Boattini),e,7.3749,46.7898,269.3692,3.856862,0.1301227,0.55022971,181.2115,07/26.0/2022,2000,g 15.5,4.0
# From MPC 82718
P/2011 W1 (PANSTARRS),e,3.7186,161.7845,282.7654,4.665057,0.0978180,0.28789053,16.4534,07/26.0/2022,2000,g 11.5,4.0
# From MPC 79342
P/2011 Y2 (Boattini),e,6.3760,309.3381,131.9348,6.238551,0.0632526,0.71011349,240.1078,07/26.0/2022,2000,g 15.0,4.0
# From MPEC 2022-K19
P/2012 B1 (PANSTARRS),e,7.6102,36.2165,162.4206,6.531554,0.0590445,0.40893874,194.9123,07/26.0/2022,2000,g  9.0,4.0
# From MPC 78590
P/2012 C3 (PANSTARRS),e,9.0920,135.3677,344.9542,9.748681,0.0323806,0.63011148,359.9758,10/06.0/2011,2000,g 13.0,4.0
# From MPC 84931
